[{"OBJECT_NAME":"STARLINK-30135","OBJECT_ID":"2023-079V","EPOCH":"2026-03-09T22:00:01.999584","MEAN_MOTION":15.18771874,"ECCENTRICITY":0.00020934,"INCLINATION":43,"RA_OF_ASC_NODE":105.5533,"ARG_OF_PERICENTER":301.1686,"MEAN_ANOMALY":80.9348,"EPHEMERIS_TYPE":0,"CLASSIFICATION_TYPE":"U","NORAD_CAT_ID":56842,"ELEMENT_SET_NO":999,"REV_AT_EPOCH":578,"BSTAR":0.059413815,"MEAN_MOTION_DOT":0.01369076,"MEAN_MOTION_DDOT":0},{"OBJECT_NAME":"OBJECT D","OBJECT_ID":"2024-110D","EPOCH":"2026-03-09T23:35:59.225568","MEAN_MOTION":15.22946484,"ECCENTRICITY":0.00091951,"INCLINATION":97.5701,"RA_OF_ASC_NODE":165.3055,"ARG_OF_PERICENTER":232.8206,"MEAN_ANOMALY":127.2191,"EPHEMERIS_TYPE":0,"CLASSIFICATION_TYPE":"U","NORAD_CAT_ID":60015,"ELEMENT_SET_NO":999,"REV_AT_EPOCH":9715,"BSTAR":0.00037001945,"MEAN_MOTION_DOT":8.627e-5,"MEAN_MOTION_DDOT":0}]
